     3.04           N: GNSS NAV DATA    M: Mixed            RINEX VERSION / TYPE
CONVBIN 2.4.3                           20260620 093734 UTC PGM / RUN BY / DATE 
format: u-blox UBX                                          COMMENT             
log: C:\Users\RG\Documents\MATLAB\MATLAB IMPLEMENTATION\DataCOMMENT             
                                                            END OF HEADER       
S23 2026  6 18 17 38 24  .000000000000D+00  .000000000000D+00  .409115000000D+06
      .386679640000D+05  .000000000000D+00  .000000000000D+00  .100000000000D+01
      .168133080000D+05  .000000000000D+00  .000000000000D+00  .819200000000D+04
      .000000000000D+00  .000000000000D+00  .000000000000D+00  .000000000000D+00
S36 2026  6 18 17 39 28  .000000000000D+00  .000000000000D+00  .409169000000D+06
      .420036880000D+05  .000000000000D+00  .000000000000D+00  .100000000000D+01
      .367484696000D+04  .000000000000D+00  .000000000000D+00  .819200000000D+04
      .000000000000D+00  .000000000000D+00  .000000000000D+00  .000000000000D+00
G09 2026 06 18 17 59 44  .734940171242D-03 -.568434188608D-11  .000000000000D+00
      .510000000000D+02 -.117093750000D+03  .439911181209D-08  .500496644906D+00
     -.624172389507D-05  .353160488885D-02  .702776014805D-05  .515372167778D+04
      .410384000000D+06 -.931322574615D-07 -.303379825467D+01 -.186264514923D-07
      .966479615927D+00  .247312500000D+03  .203015961984D+01 -.813462455405D-08
     -.282154610015D-09  .100000000000D+01  .242300000000D+04  .000000000000D+00
      .200000000000D+01  .000000000000D+00  .465661287308D-09  .510000000000D+02
      .409176000000D+06  .400000000000D+01
